OBJECT_NAME,OBJECT_ID,EPOCH,MEAN_MOTION,ECCENTRICITY,INCLINATION,RA_OF_ASC_NODE,ARG_OF_PERICENTER,MEAN_ANOMALY,EPHEMERIS_TYPE,CLASSIFICATION_TYPE,NORAD_CAT_ID,ELEMENT_SET_NO,REV_AT_EPOCH,BSTAR,MEAN_MOTION_DOT,MEAN_MOTION_DDOT
ONEWEB-0236,2021-045AG,2026-07-11T15:59:28.510944,13.15548027,.000212,87.8985,254.3294,95.9707,264.1665,0,U,48797,999,24747,-.44150155E-3,-.153E-5,0
ONEWEB-0248,2021-045AH,2026-07-11T16:17:43.322496,13.15548771,.00024202,87.8994,254.3126,108.1043,252.0351,0,U,48798,999,24763,-.23041699E-4,.4E-7,0
ONEWEB-0225,2021-045AJ,2026-07-11T15:00:09.120384,13.15548018,.00021707,87.8992,254.3306,113.0132,247.1228,0,U,48799,999,24763,.4228729E-3,.172E-5,0
ONEWEB-0215,2021-045AK,2026-07-11T16:06:18.628416,13.15548721,.00023323,87.8997,254.3050,114.4845,245.6529,0,U,48800,999,24751,-.31886991E-3,-.107E-5,0
ONEWEB-0216,2021-045AL,2026-07-11T16:20:00.600000,13.15547563,.00020223,87.8995,254.3170,95.3786,264.7575,0,U,48801,999,24752,-.705347E-4,-.14E-6,0
ONEWEB-0239,2021-045AM,2026-07-11T16:26:51.289440,13.15548411,.00024861,87.8981,254.3201,114.8682,245.2707,0,U,48802,999,24756,.40799756E-3,.166E-5,0
ONEWEB-0249,2021-060A,2026-07-11T14:23:50.195328,13.16593716,.00022457,87.9082,223.9286,94.7702,265.3686,0,U,48967,999,24282,-.98532397E-3,-.364E-5,0
ONEWEB-0250,2021-060B,2026-07-11T14:35:43.454112,13.25835292,.00030388,87.9076,221.6043,89.3052,270.8433,0,U,48968,999,24345,.27607976E-3,.134E-5,0
ONEWEB-0252,2021-060D,2026-07-11T15:08:19.906944,13.16594933,.00018614,87.9077,223.9155,94.6397,265.4946,0,U,48970,999,24287,-.13601E-4,.8E-7,0
ONEWEB-0253,2021-060E,2026-07-11T14:52:22.547424,13.16594334,.00022488,87.9079,223.9231,93.8966,266.2422,0,U,48971,999,24280,-.34743182E-4,0,0
ONEWEB-0254,2021-060F,2026-07-11T15:06:03.446784,13.16594222,.00023007,87.9084,223.9175,102.3026,257.8363,0,U,48972,999,24280,.14570194E-3,.69E-6,0
ONEWEB-0255,2021-060G,2026-07-11T14:11:20.270976,13.16594060,.00021049,87.9078,223.9326,98.6563,261.4807,0,U,48973,999,24287,.6518272E-4,.38E-6,0
ONEWEB-0256,2021-060H,2026-07-11T14:48:55.486368,13.16594140,.00017157,87.9072,223.9301,94.8879,265.2448,0,U,48974,999,24284,.47318092E-3,.194E-5,0
ONEWEB-0257,2021-060J,2026-07-11T13:46:15.481056,13.16593327,.000207,87.9079,223.9280,97.2060,262.9307,0,U,48975,999,24279,-.33969335E-3,-.117E-5,0
ONEWEB-0258,2021-060K,2026-07-11T13:48:32.338656,13.16593755,.00021313,87.9081,223.9392,94.2107,265.9268,0,U,48976,999,24280,-.73780353E-4,-.15E-6,0
ONEWEB-0259,2021-060L,2026-07-11T15:28:51.205440,13.16594550,.00021975,87.9079,223.9240,96.3564,263.7818,0,U,48977,999,24284,-.57453192E-4,-.9E-7,0
ONEWEB-0260,2021-060M,2026-07-11T15:16:17.628096,13.16595533,.00016799,87.9073,223.9265,90.9032,269.2291,0,U,48978,999,24282,.16600557E-4,.19E-6,0
ONEWEB-0261,2021-060N,2026-07-11T14:33:00.157248,13.16593493,.00019867,87.9072,223.9336,104.7397,255.3954,0,U,48979,999,24287,.36048472E-3,.151E-5,0
ONEWEB-0262,2021-060P,2026-07-11T14:04:29.747424,13.16594179,.00022404,87.9075,223.9235,97.3343,262.8043,0,U,48980,999,24283,.11233593E-3,.56E-6,0
ONEWEB-0263,2021-060Q,2026-07-11T14:50:05.558496,13.16593657,.00021062,87.9081,223.9289,104.8770,255.2594,0,U,48981,999,24280,.32166536E-3,.136E-5,0
ONEWEB-0264,2021-060R,2026-07-11T13:54:12.631104,13.16592262,.00019248,87.9070,223.9395,99.0645,261.0704,0,U,48982,999,24280,-.93713498E-4,-.23E-6,0
ONEWEB-0266,2021-060T,2026-07-11T14:25:00.438528,13.16594537,.00022092,87.9081,223.9257,90.5047,269.6337,0,U,48984,999,24279,-.63301448E-4,-.11E-6,0
ONEWEB-0267,2021-060U,2026-07-11T14:40:58.567008,13.16593995,.00019539,87.9080,223.9207,100.3249,259.8102,0,U,48985,999,24280,.4482846E-3,.184E-5,0
ONEWEB-0268,2021-060V,2026-07-11T13:55:22.527840,13.16593472,.00019432,87.9080,223.9363,91.4238,268.7116,0,U,48986,999,24306,.19355577E-3,.87E-6,0
ONEWEB-0269,2021-060W,2026-07-11T13:28:01.056576,13.16594025,.00020114,87.9078,223.9406,88.6979,271.4383,0,U,48987,999,24283,.40790713E-4,.28E-6,0
ONEWEB-0270,2021-060X,2026-07-11T13:53:05.982144,13.16593810,.00023023,87.9081,223.9389,102.7048,257.4340,0,U,48988,999,24287,-.14004656E-3,-.41E-6,0
ONEWEB-0271,2021-060Y,2026-07-11T15:24:17.762400,13.16594378,.00020829,87.9082,223.9145,100.4334,259.7032,0,U,48989,999,24288,.19726763E-4,.2E-6,0
ONEWEB-0272,2021-060Z,2026-07-11T14:06:46.575648,13.16595198,.00018144,87.9072,223.9371,96.6039,263.5299,0,U,48990,999,24282,-.10888846E-4,.9E-7,0
ONEWEB-0273,2021-060AA,2026-07-11T14:38:41.487360,13.16593690,.00021094,87.9081,223.9326,100.7598,259.3771,0,U,48991,999,24280,.17333066E-3,.79E-6,0
ONEWEB-0274,2021-060AB,2026-07-11T15:15:09.569952,13.16595642,.00017024,87.9070,223.9278,93.7646,266.3680,0,U,48992,999,24284,-.10067889E-3,-.26E-6,0
